ONEWEB-0555             
1 56057U 23043M   24119.47845945  .00000077  00000+0  16668-3 0  9991
2 56057  87.9146  23.9725 0002319  63.7300 296.4069 13.16595682 56364
ONEWEB-0557             
1 56058U 23043N   24119.49270375  .00000195  00000+0  47619-3 0  9994
2 56058  87.9146  23.9955 0002250  50.7704 309.3626 13.16594698 56367
ONEWEB-0558             
1 56059U 23043P   24119.84530734  .00000081  00000+0  16413-3 0  9994
2 56059  87.9316  39.1030 0001939  95.3982 264.7373 13.21828532 56193
ONEWEB-0559             
1 56060U 23043Q   24119.83425275  .00000063  00000+0  12129-3 0  9998
2 56060  87.9315  39.1038 0001346  90.4913 269.6375 13.21829810 56202
ONEWEB-0566             
1 56061U 23043R   24119.82794859  .00000074  00000+0  14682-3 0  9993
2 56061  87.9316  39.1058 0001887 102.3717 257.7628 13.21825123 56180
ONEWEB-0568             
1 56062U 23043S   24119.43412442  .00000064  00000+0  13291-3 0  9990
2 56062  87.9149  23.9714 0002139  72.8403 287.2962 13.16595439 56377
ONEWEB-0574             
1 56063U 23043T   24119.82164268  .00000094  00000+0  19706-3 0  9994
2 56063  87.9313  39.1024 0002048  81.8622 278.2744 13.21829432 56227
ONEWEB-0575             
1 56064U 23043U   24119.73177479  .00000131  00000+0  30862-3 0  9991
2 56064  87.9150  23.9207 0001781  59.9864 300.1443 13.16595349 57311
ONEWEB-0576             
1 56065U 23043V   24119.78877416  .00000140  00000+0  33182-3 0  9993
2 56065  87.9146  23.9079 0002103  68.7944 291.3411 13.16595655 57316
ONEWEB-0577             
1 56066U 23043W   24119.49112336  .00000124  00000+0  29022-3 0  9995
2 56066  87.9144  23.9659 0001718  51.8497 308.2789 13.16595919 56392
ONEWEB-0578             
1 56067U 23043X   24119.50624908  .00000050  00000+0  90231-4 0  9990
2 56067  87.9315  39.1617 0002076  77.2766 282.8600 13.21827997 55236
ONEWEB-0579             
1 56068U 23043Y   24119.26968312 -.00000163  00000+0 -42532-3 0  9991
2 56068  87.9310  39.2078 0001525  87.1690 272.9618 13.21825710 55216
ONEWEB-0581             
1 56069U 23043Z   24119.49745161  .00000152  00000+0  36492-3 0  9996
2 56069  87.9146  23.9944 0001410  64.0260 296.1016 13.16595114 56369
ONEWEB-0609             
1 56070U 23043AA  24119.36796865  .00000031  00000+0  49208-4 0  9997
2 56070  87.9046  54.3983 0001962  82.4197 277.7156 13.15550638 53904
ONEWEB-0613             
1 56071U 23043AB  24119.89562963  .00000192  00000+0  47609-3 0  9996
2 56071  87.9049  54.2874 0001707  89.8224 270.3102 13.15549522 54883
ONEWEB-0630             
1 56072U 23043AC  24119.89086772  .00000198  00000+0  49219-3 0  9991
2 56072  87.9045  54.2811 0001887  92.8124 267.3223 13.15549564 54878
ONEWEB-0632             
1 56073U 23043AD  24119.58188257  .00000173  00000+0  42641-3 0  9994
2 56073  87.9045  54.3612 0001570  74.0864 286.0439 13.15548144 53926
ONEWEB-0633             
1 56074U 23043AE  24119.87977412  .00000166  00000+0  40763-3 0  9991
2 56074  87.9041  54.2855 0002015  98.0380 262.0979 13.15550688 54857
ONEWEB-0634             
1 56075U 23043AF  24119.86551090  .00000091  00000+0  20850-3 0  9993
2 56075  87.9046  54.2959 0002329  84.1764 275.9632 13.15549344 54843
ONEWEB-0635             
1 56076U 23043AG  24119.86076398 -.00000033  00000+0 -12057-3 0  9995
2 56076  87.9045  54.3531 0001564  71.0641 289.0659 13.15548934 54871
ONEWEB-0636             
1 56077U 23043AH  24119.54860860 -.00000081  00000+0 -24865-3 0  9999
2 56077  87.9044  54.3844 0001657  72.5490 287.5821 13.15549219 53903
ONEWEB-0637             
1 56078U 23043AJ  24119.54226963 -.00000097  00000+0 -29263-3 0  9994
2 56078  87.9046  54.3615 0001659  68.9141 291.2167 13.15550061 53920
ONEWEB-0647             
1 56079U 23043AK  24119.53751363 -.00000072  00000+0 -22474-3 0  9991
2 56079  87.9043  54.3821 0001624  76.7782 283.3530 13.15548710 53910
ONEWEB-0651             
1 56080U 23043AL  24119.53276132 -.00000061  00000+0 -19541-3 0  9998
2 56080  87.9050  54.3582 0001823  67.3656 292.7667 13.15549696 55114
ONEWEB-0718             
1 56081U 23043AM  24119.52801567 -.00000004  00000+0 -43465-4 0  9994
2 56081  87.9048  54.3460 0002569  83.6587 276.4836 13.15550169 53920
ONEWEB-0561             
1 56710U 23068A   24119.58468117  .00000097  00000+0  20714-3 0  9997
2 56710  87.9207  69.5861 0001631  93.9732 266.1588 13.20807719 46591
ONEWEB-0668             
1 56711U 23068B   24119.80381236  .00000226  00000+0  55655-3 0  9995
2 56711  87.9140  23.9190 0002522  77.7061 282.4353 13.16594048 49926
ONEWEB-0676             
1 56712U 23068C   24119.47449939  .00000110  00000+0  25388-3 0  9996
2 56712  87.9144  23.9839 0001436  71.4389 288.6898 13.16595435 49101
ONEWEB-0677             
1 56713U 23068D   24119.59790733  .00000052  00000+0  77128-4 0  9996
2 56713  88.3260  68.5225 0001754  66.9530 293.1796 13.34785033 46830
ONEWEB-0678             
1 56714U 23068E   24119.87660367  .00000211  00000+0  52553-3 0  9998
2 56714  87.9048  54.2406 0001734  89.4569 270.6760 13.15550914 47528
ONEWEB-0679             
1 56715U 23068F   24119.44917302  .00000010  00000+0 -81235-5 0  9995
2 56715  87.9144  23.9962 0002304  62.0183 298.1181 13.16594593 49121
ONEWEB-0680             
1 56716U 23068G   24119.48496640  .00000109  00000+0  23193-3 0  9992
2 56716  87.9316  39.2038 0002742  74.5863 285.5574 13.21827214 48092
ONEWEB-0681             
1 56717U 23068H   24119.51019216 -.00000036  00000+0 -11892-3 0  9991
2 56717  87.9316  39.1863 0001295  40.9885 319.1346 13.21826527 48087
ONEWEB-0682             
1 56718U 23068J   24119.82669165 -.00000159  00000+0 -45530-3 0  9992
2 56718  87.9048  54.2938 0002454  71.2457 288.8940 13.15547133 47684
ONEWEB-0683             
1 56719U 23068K   24119.54385483 -.00000057  00000+0 -18616-3 0  9992
2 56719  87.9044  54.3227 0002229  75.5799 284.5579 13.15549948 47619
ONEWEB-0684             
1 56720U 23068L   24119.32360215  .00000185  00000+0  45621-3 0  9992
2 56720  87.9043  54.4425 0002288 123.6132 236.5217 13.15550222 46715
ONEWEB-0686             
1 56721U 23068M   24119.43887078  .00000052  00000+0  10150-3 0  9998
2 56721  87.9145  24.0350 0001946  83.4708 276.6645 13.16596611 49111
ONEWEB-0694             
1 56722U 23068N   24119.46499996  .00000081  00000+0  17808-3 0  9999
2 56722  87.9141  23.9450 0002319  74.0584 286.0802 13.16593340 49172
ONEWEB-0696             
1 56723U 23068P   24119.88927986  .00000222  00000+0  55654-3 0  9999
2 56723  87.9045  54.3043 0001636  82.1773 277.9543 13.15549923 47607
ONEWEB-0703             
1 56724U 23068Q   24119.51849845  .00000053  00000+0  10710-3 0  9993
2 56724  87.9045  54.3993 0000770 106.1702 253.9513 13.15550235 46742
ONEWEB-0721             
1 56725U 23068R   24119.58894959  .00004098  00000+0  47877-3 0  9994
2 56725  86.6796 356.8245 0013229  87.9282 272.3457 14.84836790 51157
